HYPSO-1
1 51053U 22002BX  25296.93021535  .00034531  00000+0  64114-3 0  9996
2 51053  97.3166   6.7052 0004161  83.3535 276.8189 15.48851464210108
HYPSO-1-follower
1 51053U 22002BX  25296.93021535  .00034531  00000+0  64114-3 0  9996
2 51053  97.3166   6.7052 0004161  83.3535 266.8189 15.48851464210108
